<ndm xmlns:xsi="http://www.w3.org/2001/XMLSchema-instance" xsi:noNamespaceSchemaLocation="https://sanaregistry.org/r/ndmxml_unqualified/ndmxml-2.0.0-master-2.0.xsd">
<omm id="CCSDS_OMM_VERS" version="2.0">
<header>
<CREATION_DATE/>
<ORIGINATOR/>
</header>
<body>
<segment>
<metadata>
<OBJECT_NAME>IRIDIUM 45 [-]</OBJECT_NAME>
<OBJECT_ID>1997-082A</OBJECT_ID>
<CENTER_NAME>EARTH</CENTER_NAME>
<REF_FRAME>TEME</REF_FRAME>
<TIME_SYSTEM>UTC</TIME_SYSTEM>
<MEAN_ELEMENT_THEORY>SGP4</MEAN_ELEMENT_THEORY>
</metadata>
<data>
<meanElements>
<EPOCH>2023-04-16T12:48:29.178720</EPOCH>
<MEAN_MOTION>14.91966452</MEAN_MOTION>
<ECCENTRICITY>.0189521</ECCENTRICITY>
<INCLINATION>86.3772</INCLINATION>
<RA_OF_ASC_NODE>61.0168</RA_OF_ASC_NODE>
<ARG_OF_PERICENTER>341.9338</ARG_OF_PERICENTER>
<MEAN_ANOMALY>17.5212</MEAN_ANOMALY>
</meanElements>
<tleParameters>
<EPHEMERIS_TYPE>0</EPHEMERIS_TYPE>
<CLASSIFICATION_TYPE>U</CLASSIFICATION_TYPE>
<NORAD_CAT_ID>25104</NORAD_CAT_ID>
<ELEMENT_SET_NO>999</ELEMENT_SET_NO>
<REV_AT_EPOCH>33288</REV_AT_EPOCH>
<BSTAR>.17078E-2</BSTAR>
<MEAN_MOTION_DOT>.24602E-3</MEAN_MOTION_DOT>
<MEAN_MOTION_DDOT>0</MEAN_MOTION_DDOT>
</tleParameters>
</data>
</segment>
</body>
</omm>
<omm id="CCSDS_OMM_VERS" version="2.0">
<header>
<CREATION_DATE/>
<ORIGINATOR/>
</header>
<body>
<segment>
<metadata>
<OBJECT_NAME>IRIDIUM 24 [-]</OBJECT_NAME>
<OBJECT_ID>1997-082B</OBJECT_ID>
<CENTER_NAME>EARTH</CENTER_NAME>
<REF_FRAME>TEME</REF_FRAME>
<TIME_SYSTEM>UTC</TIME_SYSTEM>
<MEAN_ELEMENT_THEORY>SGP4</MEAN_ELEMENT_THEORY>
</metadata>
<data>
<meanElements>
<EPOCH>2023-04-16T08:44:18.954528</EPOCH>
<MEAN_MOTION>14.40541757</MEAN_MOTION>
<ECCENTRICITY>.0011864</ECCENTRICITY>
<INCLINATION>86.3923</INCLINATION>
<RA_OF_ASC_NODE>55.9125</RA_OF_ASC_NODE>
<ARG_OF_PERICENTER>163.4366</ARG_OF_PERICENTER>
<MEAN_ANOMALY>196.7224</MEAN_ANOMALY>
</meanElements>
<tleParameters>
<EPHEMERIS_TYPE>0</EPHEMERIS_TYPE>
<CLASSIFICATION_TYPE>U</CLASSIFICATION_TYPE>
<NORAD_CAT_ID>25105</NORAD_CAT_ID>
<ELEMENT_SET_NO>999</ELEMENT_SET_NO>
<REV_AT_EPOCH>32902</REV_AT_EPOCH>
<BSTAR>.3148E-3</BSTAR>
<MEAN_MOTION_DOT>.1022E-4</MEAN_MOTION_DOT>
<MEAN_MOTION_DDOT>0</MEAN_MOTION_DDOT>
</tleParameters>
</data>
</segment>
</body>
</omm>
<omm id="CCSDS_OMM_VERS" version="2.0">
<header>
<CREATION_DATE/>
<ORIGINATOR/>
</header>
<body>
<segment>
<metadata>
<OBJECT_NAME>IRIDIUM 51 [-]</OBJECT_NAME>
<OBJECT_ID>1998-018A</OBJECT_ID>
<CENTER_NAME>EARTH</CENTER_NAME>
<REF_FRAME>TEME</REF_FRAME>
<TIME_SYSTEM>UTC</TIME_SYSTEM>
<MEAN_ELEMENT_THEORY>SGP4</MEAN_ELEMENT_THEORY>
</metadata>
<data>
<meanElements>
<EPOCH>2023-04-16T10:02:28.113216</EPOCH>
<MEAN_MOTION>14.98195800</MEAN_MOTION>
<ECCENTRICITY>.017499</ECCENTRICITY>
<INCLINATION>86.3922</INCLINATION>
<RA_OF_ASC_NODE>72.0530</RA_OF_ASC_NODE>
<ARG_OF_PERICENTER>303.2372</ARG_OF_PERICENTER>
<MEAN_ANOMALY>55.2190</MEAN_ANOMALY>
</meanElements>
<tleParameters>
<EPHEMERIS_TYPE>0</EPHEMERIS_TYPE>
<CLASSIFICATION_TYPE>U</CLASSIFICATION_TYPE>
<NORAD_CAT_ID>25262</NORAD_CAT_ID>
<ELEMENT_SET_NO>999</ELEMENT_SET_NO>
<REV_AT_EPOCH>32712</REV_AT_EPOCH>
<BSTAR>.11874E-2</BSTAR>
<MEAN_MOTION_DOT>.19437E-3</MEAN_MOTION_DOT>
<MEAN_MOTION_DDOT>0</MEAN_MOTION_DDOT>
</tleParameters>
</data>
</segment>
</body>
</omm>
<omm id="CCSDS_OMM_VERS" version="2.0">
<header>
<CREATION_DATE/>
<ORIGINATOR/>
</header>
<body>
<segment>
<metadata>
<OBJECT_NAME>IRIDIUM 57 [-]</OBJECT_NAME>
<OBJECT_ID>1998-019B</OBJECT_ID>
<CENTER_NAME>EARTH</CENTER_NAME>
<REF_FRAME>TEME</REF_FRAME>
<TIME_SYSTEM>UTC</TIME_SYSTEM>
<MEAN_ELEMENT_THEORY>SGP4</MEAN_ELEMENT_THEORY>
</metadata>
<data>
<meanElements>
<EPOCH>2023-04-16T13:19:06.555936</EPOCH>
<MEAN_MOTION>14.34772695</MEAN_MOTION>
<ECCENTRICITY>.0002238</ECCENTRICITY>
<INCLINATION>86.3914</INCLINATION>
<RA_OF_ASC_NODE>117.1608</RA_OF_ASC_NODE>
<ARG_OF_PERICENTER>88.3154</ARG_OF_PERICENTER>
<MEAN_ANOMALY>271.8299</MEAN_ANOMALY>
</meanElements>
<tleParameters>
<EPHEMERIS_TYPE>0</EPHEMERIS_TYPE>
<CLASSIFICATION_TYPE>U</CLASSIFICATION_TYPE>
<NORAD_CAT_ID>25273</NORAD_CAT_ID>
<ELEMENT_SET_NO>999</ELEMENT_SET_NO>
<REV_AT_EPOCH>31109</REV_AT_EPOCH>
<BSTAR>.22016E-3</BSTAR>
<MEAN_MOTION_DOT>.643E-5</MEAN_MOTION_DOT>
<MEAN_MOTION_DDOT>0</MEAN_MOTION_DDOT>
</tleParameters>
</data>
</segment>
</body>
</omm>
<omm id="CCSDS_OMM_VERS" version="2.0">
<header>
<CREATION_DATE/>
<ORIGINATOR/>
</header>
<body>
<segment>
<metadata>
<OBJECT_NAME>IRIDIUM 63 [-]</OBJECT_NAME>
<OBJECT_ID>1998-021B</OBJECT_ID>
<CENTER_NAME>EARTH</CENTER_NAME>
<REF_FRAME>TEME</REF_FRAME>
<TIME_SYSTEM>UTC</TIME_SYSTEM>
<MEAN_ELEMENT_THEORY>SGP4</MEAN_ELEMENT_THEORY>
</metadata>
<data>
<meanElements>
<EPOCH>2023-04-16T07:31:28.566048</EPOCH>
<MEAN_MOTION>14.35266376</MEAN_MOTION>
<ECCENTRICITY>.0002127</ECCENTRICITY>
<INCLINATION>86.4000</INCLINATION>
<RA_OF_ASC_NODE>54.1565</RA_OF_ASC_NODE>
<ARG_OF_PERICENTER>81.2212</ARG_OF_PERICENTER>
<MEAN_ANOMALY>278.9226</MEAN_ANOMALY>
</meanElements>
<tleParameters>
<EPHEMERIS_TYPE>0</EPHEMERIS_TYPE>
<CLASSIFICATION_TYPE>U</CLASSIFICATION_TYPE>
<NORAD_CAT_ID>25286</NORAD_CAT_ID>
<ELEMENT_SET_NO>999</ELEMENT_SET_NO>
<REV_AT_EPOCH>31007</REV_AT_EPOCH>
<BSTAR>.30433E-3</BSTAR>
<MEAN_MOTION_DOT>.89E-5</MEAN_MOTION_DOT>
<MEAN_MOTION_DDOT>0</MEAN_MOTION_DDOT>
</tleParameters>
</data>
</segment>
</body>
</omm>
<omm id="CCSDS_OMM_VERS" version="2.0">
<header>
<CREATION_DATE/>
<ORIGINATOR/>
</header>
<body>
<segment>
<metadata>
<OBJECT_NAME>IRIDIUM 69 [-]</OBJECT_NAME>
<OBJECT_ID>1998-026A</OBJECT_ID>
<CENTER_NAME>EARTH</CENTER_NAME>
<REF_FRAME>TEME</REF_FRAME>
<TIME_SYSTEM>UTC</TIME_SYSTEM>
<MEAN_ELEMENT_THEORY>SGP4</MEAN_ELEMENT_THEORY>
</metadata>
<data>
<meanElements>
<EPOCH>2023-04-16T10:31:39.022176</EPOCH>
<MEAN_MOTION>14.39368367</MEAN_MOTION>
<ECCENTRICITY>.0004325</ECCENTRICITY>
<INCLINATION>86.3971</INCLINATION>
<RA_OF_ASC_NODE>69.7212</RA_OF_ASC_NODE>
<ARG_OF_PERICENTER>100.3602</ARG_OF_PERICENTER>
<MEAN_ANOMALY>259.8084</MEAN_ANOMALY>
</meanElements>
<tleParameters>
<EPHEMERIS_TYPE>0</EPHEMERIS_TYPE>
<CLASSIFICATION_TYPE>U</CLASSIFICATION_TYPE>
<NORAD_CAT_ID>25319</NORAD_CAT_ID>
<ELEMENT_SET_NO>999</ELEMENT_SET_NO>
<REV_AT_EPOCH>30897</REV_AT_EPOCH>
<BSTAR>.31636E-3</BSTAR>
<MEAN_MOTION_DOT>.1003E-4</MEAN_MOTION_DOT>
<MEAN_MOTION_DDOT>0</MEAN_MOTION_DDOT>
</tleParameters>
</data>
</segment>
</body>
</omm>
<omm id="CCSDS_OMM_VERS" version="2.0">
<header>
<CREATION_DATE/>
<ORIGINATOR/>
</header>
<body>
<segment>
<metadata>
<OBJECT_NAME>IRIDIUM 71 [-]</OBJECT_NAME>
<OBJECT_ID>1998-026B</OBJECT_ID>
<CENTER_NAME>EARTH</CENTER_NAME>
<REF_FRAME>TEME</REF_FRAME>
<TIME_SYSTEM>UTC</TIME_SYSTEM>
<MEAN_ELEMENT_THEORY>SGP4</MEAN_ELEMENT_THEORY>
</metadata>
<data>
<meanElements>
<EPOCH>2023-04-16T09:34:07.885632</EPOCH>
<MEAN_MOTION>14.39727201</MEAN_MOTION>
<ECCENTRICITY>.0003011</ECCENTRICITY>
<INCLINATION>86.3963</INCLINATION>
<RA_OF_ASC_NODE>64.6324</RA_OF_ASC_NODE>
<ARG_OF_PERICENTER>131.3482</ARG_OF_PERICENTER>
<MEAN_ANOMALY>228.7976</MEAN_ANOMALY>
</meanElements>
<tleParameters>
<EPHEMERIS_TYPE>0</EPHEMERIS_TYPE>
<CLASSIFICATION_TYPE>U</CLASSIFICATION_TYPE>
<NORAD_CAT_ID>25320</NORAD_CAT_ID>
<ELEMENT_SET_NO>999</ELEMENT_SET_NO>
<REV_AT_EPOCH>30947</REV_AT_EPOCH>
<BSTAR>.30653E-3</BSTAR>
<MEAN_MOTION_DOT>.979E-5</MEAN_MOTION_DOT>
<MEAN_MOTION_DDOT>0</MEAN_MOTION_DDOT>
</tleParameters>
</data>
</segment>
</body>
</omm>

</ndm>